     2.10           G: GLONASS NAV DATA                     RINEX VERSION / TYPE
teqc  2015Jun23                         20210614 02:25:48UTCPGM / RUN BY / DATE
Linux 2.4.21-27.ELsmp|Opteron|gcc -static|Linux x86_64|=+   COMMENT
  2021     5    21   -9.778887033463D-09                    CORR TO SYSTEM TIME
                                                            END OF HEADER
16 21  5 22  8 45  0.0-1.537613570690D-05 0.000000000000D+00 3.060000000000D+04
    2.760219238281D+03-8.193826675415D-01 9.313225746155D-10 0.000000000000D+00
    2.078549365234D+04-1.821606636047D+00-1.862645149231D-09-1.000000000000D+00
   -1.464096386719D+04-2.732799530029D+00 1.862645149231D-09 0.000000000000D+00
 4 21  5 22  8 45  0.0 8.789356797934D-05 1.818989403546D-12 3.060000000000D+04
   -1.691338720703D+04 9.632415771484D-01-2.793967723846D-09 0.000000000000D+00
    1.577999218750D+04-1.124670982361D+00-9.313225746155D-10 6.000000000000D+00
    1.078828076172D+04 3.164250373840D+00-9.313225746155D-10 0.000000000000D+00
 5 21  5 22  8 45  0.0 7.220264524221D-05 9.094947017729D-13 3.060000000000D+04
   -1.142599511719D+04-3.496789932251D-01-1.862645149231D-09 0.000000000000D+00
    2.190773437500D+04 8.195180892944D-01-1.862645149231D-09 1.000000000000D+00
   -6.362018066406D+03 3.439161300659D+00 9.313225746155D-10 0.000000000000D+00
 9 21  5 22  8 45  0.0-5.898065865040D-06 9.094947017729D-13 3.060000000000D+04
    1.194689746094D+04 1.759929656982D-01 2.793967723846D-09 0.000000000000D+00
    2.245793896484D+04 1.075658798218D-01-9.313225746155D-10-2.000000000000D+00
    1.292538085938D+03-3.546679496765D+00 0.000000000000D+00 0.000000000000D+00
10 21  5 22  8 45  0.0-7.089879363775D-05-0.000000000000D+00 3.231000000000D+04
    1.503135302734D+04 1.105078697205D+00 2.793967723846D-09 0.000000000000D+00
    1.258768603516D+04 1.948915481567D+00-0.000000000000D+00-7.000000000000D+00
    1.634997314453D+04-2.508746147156D+00-9.313225746155D-10 0.000000000000D+00
16 21  5 22  9 15  0.0-1.537520438433D-05 0.000000000000D+00 3.240000000000D+04
    7.571459960938D+02-1.410131454468D+00-0.000000000000D+00 0.000000000000D+00
    1.715726220703D+04-2.163777351379D+00-1.862645149231D-09-1.000000000000D+00
   -1.893501513672D+04-2.007473945618D+00 2.793967723846D-09 0.000000000000D+00
 4 21  5 22  9 15  0.0 8.789729326963D-05 1.818989403546D-12 3.240000000000D+04
   -1.501402246094D+04 1.102852821350D+00-2.793967723846D-09 0.000000000000D+00
    1.305897216797D+04-1.889472007751D+00-0.000000000000D+00 6.000000000000D+00
    1.599427392578D+04 2.582787513733D+00-1.862645149231D-09 0.000000000000D+00
 5 21  5 22  9 15  0.0 7.220450788736D-05 9.094947017729D-13 3.240000000000D+04
   -1.156680078125D+04 1.617689132690D-01-2.793967723846D-09 0.000000000000D+00
    2.274683398438D+04 8.573627471924D-02-1.862645149231D-09 1.000000000000D+00
   -5.672363281250D+00 3.577610969543D+00 0.000000000000D+00 0.000000000000D+00
 9 21  5 22  9 15  0.0-5.895271897316D-06 9.094947017729D-13 3.240000000000D+04
    1.186244238281D+04-3.020200729370D-01 1.862645149231D-09 0.000000000000D+00
    2.196102832031D+04-6.359558105469D-01-1.862645149231D-09-2.000000000000D+00
   -5.058811523438D+03-3.464324951172D+00 9.313225746155D-10 0.000000000000D+00
10 21  5 22  9 15  0.0-7.089879363775D-05-0.000000000000D+00 3.240000000000D+04
    1.694945703125D+04 9.824409484863D-01 2.793967723846D-09 0.000000000000D+00
    1.542724316406D+04 1.195711135864D+00-9.313225746155D-10-7.000000000000D+00
    1.126204199219D+04-3.107824325562D+00-0.000000000000D+00 0.000000000000D+00
 6 21  5 22  9 15  0.0 1.984015107155D-04 0.000000000000D+00 3.246000000000D+04
    7.487656250000D+02-9.553050994873D-01-0.000000000000D+00 0.000000000000D+00
    1.836188623047D+04 2.227190017700D+00-1.862645149231D-09-4.000000000000D+00
   -1.770362353516D+04 2.268087387085D+00 1.862645149231D-09 0.000000000000D+00
16 21  5 22  9 45  0.0-1.537520438433D-05 0.000000000000D+00 3.420000000000D+04
   -2.297351074219D+03-1.969391822815D+00-9.313225746155D-10 0.000000000000D+00
    1.316534960938D+04-2.225039482117D+00-9.313225746155D-10-1.000000000000D+00
   -2.177443701172D+04-1.126831054688D+00 2.793967723846D-09 0.000000000000D+00
 4 21  5 22  9 45  0.0 8.790101855993D-05 1.818989403546D-12 3.420000000000D+04
   -1.309662060547D+04 9.881086349487D-01-1.862645149231D-09 0.000000000000D+00
    9.044967773438D+03-2.542965888977D+00 0.000000000000D+00 6.000000000000D+00
    1.996679345703D+04 1.802628517151D+00-2.793967723846D-09 0.000000000000D+00
 5 21  5 22  9 45  0.0 7.220543920994D-05 9.094947017729D-13 3.420000000000D+04
   -1.097550195312D+04 4.547977447510D-01-2.793967723846D-09 0.000000000000D+00
    2.214941455078D+04-7.589693069458D-01-9.313225746155D-10 1.000000000000D+00
    6.351153808594D+03 3.439735412598D+00-0.000000000000D+00 0.000000000000D+00
 6 21  5 22  9 45  0.0 1.984033733606D-04 0.000000000000D+00 3.420000000000D+04
   -4.866049804688D+02-4.323339462280D-01-9.313225746155D-10 0.000000000000D+00
    2.195982226562D+04 1.727378845215D+00-1.862645149231D-09-4.000000000000D+00
   -1.299014257812D+04 2.935139656067D+00 1.862645149231D-09 0.000000000000D+00
 9 21  5 22  9 45  0.0-5.893409252167D-06 9.094947017729D-13 3.420000000000D+04
    1.076688623047D+04-9.335708618164D-01 9.313225746155D-10 0.000000000000D+00
    2.028024804688D+04-1.194339752197D+00-1.862645149231D-09-2.000000000000D+00
   -1.101709570312D+04-3.112792968750D+00 1.862645149231D-09 0.000000000000D+00
10 21  5 22  9 45  0.0-7.090158760548D-05 0.000000000000D+00 3.420000000000D+04
    1.841221093750D+04 6.014432907104D-01 2.793967723846D-09 0.000000000000D+00
    1.688917382812D+04 4.372663497925D-01-1.862645149231D-09-7.000000000000D+00
    5.306095703125D+03-3.467037200928D+00 0.000000000000D+00 0.000000000000D+00
16 21  5 22 10 15  0.0-1.537520438433D-05-0.000000000000D+00 3.600000000000D+04
   -6.249900878906D+03-2.391327857971D+00-1.862645149231D-09 0.000000000000D+00
    9.305490234375D+03-2.023751258850D+00-0.000000000000D+00-1.000000000000D+00
   -2.293842480469D+04-1.577939987183D-01 2.793967723846D-09 0.000000000000D+00
 5 21  5 22 10 15  0.0 7.220730185509D-05 9.094947017729D-13 3.600000000000D+04
   -1.008073974609D+04 4.973487854004D-01-2.793967723846D-09 0.000000000000D+00
    2.001570751953D+04-1.601657867432D+00-0.000000000000D+00 1.000000000000D+00
    1.221769677734D+04 3.036417007446D+00-9.313225746155D-10 0.000000000000D+00
 6 21  5 22 10 15  0.0 1.984043046832D-04 0.000000000000D+00 3.600000000000D+04
   -8.894677734375D+02-4.483127593994D-02-1.862645149231D-09 0.000000000000D+00
    2.444487792969D+04 1.002837181091D+00-9.313225746155D-10-4.000000000000D+00
   -7.273485351562D+03 3.375507354736D+00 9.313225746155D-10 0.000000000000D+00
 9 21  5 22 10 15  0.0-5.890615284443D-06 9.094947017729D-13 3.600000000000D+04
    8.466668945312D+03-1.622834205627D+00-0.000000000000D+00 0.000000000000D+00
    1.781074023438D+04-1.505275726318D+00-1.862645149231D-09-2.000000000000D+00
   -1.611946142578D+04-2.519562721252D+00 1.862645149231D-09 0.000000000000D+00
10 21  5 22 10 15  0.0-7.090065628290D-05 0.000000000000D+00 3.600000000000D+04
    1.898037548828D+04-2.009391784668D-03 1.862645149231D-09 0.000000000000D+00
    1.706418115234D+04-2.172660827637D-01-1.862645149231D-09-7.000000000000D+00
   -1.058583496094D+03-3.559087753296D+00 9.313225746155D-10 0.000000000000D+00
 7 21  5 22 10 15  0.0-4.244223237038D-05-0.000000000000D+00 3.621000000000D+04
    7.037231933594D+03-4.917278289795D-01-0.000000000000D+00 0.000000000000D+00
    1.368099169922D+04 2.748366355896D+00-1.862645149231D-09 5.000000000000D+00
   -2.031639648438D+04 1.672968864441D+00 2.793967723846D-09 0.000000000000D+00
 6 21  5 22 10 45  0.0 1.984061673284D-04 0.000000000000D+00 3.780000000000D+04
   -7.727016601562D+02 1.361551284790D-01-2.793967723846D-09 0.000000000000D+00
    2.548811083984D+04 1.424980163574D-01-9.313225746155D-10-4.000000000000D+00
   -9.951225585938D+02 3.555208206177D+00 0.000000000000D+00 0.000000000000D+00
 5 21  5 22 10 45  0.0 7.220916450024D-05 9.094947017729D-13 3.780000000000D+04
   -9.328258300781D+03 3.026638031006D-01-2.793967723846D-09 0.000000000000D+00
    1.645410693359D+04-2.327130317688D+00 0.000000000000D+00 1.000000000000D+00
    1.714138818359D+04 2.398925781250D+00-1.862645149231D-09 0.000000000000D+00
 7 21  5 22 10 45  0.0-4.244316369295D-05-0.000000000000D+00 3.780000000000D+04
    6.562694335938D+03-5.350875854492D-02-9.313225746155D-10 0.000000000000D+00
    1.824376806641D+04 2.276579856873D+00-1.862645149231D-09 5.000000000000D+00
   -1.655685058594D+04 2.476957321167D+00 1.862645149231D-09 0.000000000000D+00
 9 21  5 22 10 45  0.0-5.887821316719D-06 1.818989403546D-12 3.780000000000D+04
    4.956169921875D+03-2.259759902954D+00-9.313225746155D-10 0.000000000000D+00
    1.502257324219D+04-1.548882484436D+00-9.313225746155D-10-2.000000000000D+00
   -1.997008593750D+04-1.731121063232D+00 2.793967723846D-09 0.000000000000D+00
10 21  5 22 10 45  0.0-7.090065628290D-05 0.000000000000D+00 3.780000000000D+04
    1.831609814453D+04-7.526569366455D-01 9.313225746155D-10 0.000000000000D+00
    1.622293066406D+04-6.798009872437D-01-1.862645149231D-09-7.000000000000D+00
   -7.341765625000D+03-3.377085685730D+00 9.313225746155D-10 0.000000000000D+00
19 21  5 22 10 45  0.0-1.446958631277D-04-9.094947017729D-13 3.804000000000D+04
   -2.277437060547D+04-1.969156265259D-01-4.656612873077D-09 0.000000000000D+00
    1.123752539062D+04 3.659076690674D-01 1.862645149231D-09 3.000000000000D+00
    2.386390625000D+03-3.594183921814D+00-0.000000000000D+00 0.000000000000D+00
20 21  5 22 10 45  0.0-4.954636096954D-05-0.000000000000D+00 3.807000000000D+04
   -9.429314941406D+03-2.380774497986D+00-1.862645149231D-09 0.000000000000D+00
    1.358103271484D+04 1.206625938416D+00 9.313225746155D-10 2.000000000000D+00
    1.944403613281D+04-1.993306159973D+00-1.862645149231D-09 0.000000000000D+00
